$$SOE
2461302.500000000, A.D. 2026-Sep-19 00:00:00.0000, 1.994989219821807E+08, -1.929543872262750E+08, -4.881234507914494E+07,
2461309.500000000, A.D. 2026-Sep-26 00:00:00.0000, 2.117973454124016E+08, -1.880441325552198E+08, -4.895670616266254E+07,
2461316.500000000, A.D. 2026-Oct-03 00:00:00.0000, 2.236629107023856E+08, -1.827492629550264E+08, -4.900095450102880E+07,
2461323.500000000, A.D. 2026-Oct-10 00:00:00.0000, 2.350967336241230E+08, -1.771013729953261E+08, -4.895056468724715E+07,
2461330.500000000, A.D. 2026-Oct-17 00:00:00.0000, 2.461010308645796E+08, -1.711297008638078E+08, -4.881069742315827E+07,
2461337.500000000, A.D. 2026-Oct-24 00:00:00.0000, 2.566788930024693E+08, -1.648613198725635E+08, -4.858621406102671E+07,
2461344.500000000, A.D. 2026-Oct-31 00:00:00.0000, 2.668340971355412E+08, -1.583213189189300E+08, -4.828169241168285E+07,
2461351.500000000, A.D. 2026-Nov-07 00:00:00.0000, 2.765709528370161E+08, -1.515329708560108E+08, -4.790144314664716E+07,
2461358.500000000, A.D. 2026-Nov-14 00:00:00.0000, 2.858941760661849E+08, -1.445178875966326E+08, -4.744952624668399E+07,
2461365.500000000, A.D. 2026-Nov-21 00:00:00.0000, 2.948087845675752E+08, -1.372961614426679E+08, -4.692976693342199E+07,
2461372.500000000, A.D. 2026-Nov-28 00:00:00.0000, 3.033200098777480E+08, -1.298864961115005E+08, -4.634577100700525E+07,
2461379.500000000, A.D. 2026-Dec-05 00:00:00.0000, 3.114332263303086E+08, -1.223063287485707E+08, -4.570093982535595E+07,
2461386.500000000, A.D. 2026-Dec-12 00:00:00.0000, 3.191538945507233E+08, -1.145719405442645E+08, -4.499848459713004E+07,
2461393.500000000, A.D. 2026-Dec-19 00:00:00.0000, 3.264875153407305E+08, -1.066985567229887E+08, -4.424143977020958E+07,
2461400.500000000, A.D. 2026-Dec-26 00:00:00.0000, 3.334395919758420E+08, -9.870043755171511E+07, -4.343267555997515E+07,
2461407.500000000, A.D. 2027-Jan-02 00:00:00.0000, 3.400155996716760E+08, -9.059096131769504E+07, -4.257490966619280E+07,
2461414.500000000, A.D. 2027-Jan-09 00:00:00.0000, 3.462209610764619E+08, -8.238269997853814E+07, -4.167071821033518E+07,
2461421.500000000, A.D. 2027-Jan-16 00:00:00.0000, 3.520610267811270E+08, -7.408748815537003E+07, -4.072254592839883E+07,
2461428.500000000, A.D. 2027-Jan-23 00:00:00.0000, 3.575410600271497E+08, -6.571648614052898E+07, -3.973271566530575E+07,
2461435.500000000, A.D. 2027-Jan-30 00:00:00.0000, 3.626662250798270E+08, -5.728023755028681E+07, -3.870343723386754E+07,
2461442.500000000, A.D. 2027-Feb-06 00:00:00.0000, 3.674415790911648E+08, -4.878872181417352E+07, -3.763681569238480E+07,
2461449.500000000, A.D. 2027-Feb-13 00:00:00.0000, 3.718720664962411E+08, -4.025140076262002E+07, -3.653485894211756E+07,
2461456.500000000, A.D. 2027-Feb-20 00:00:00.0000, 3.759625131737701E+08, -3.167726054453442E+07, -3.539948453561746E+07,
2461463.500000000, A.D. 2027-Feb-27 00:00:00.0000, 3.797176214262925E+08, -2.307485249165545E+07, -3.423252612800898E+07,
2461470.500000000, A.D. 2027-Mar-06 00:00:00.0000, 3.831419685098454E+08, -1.445233136822632E+07, -3.303573972962176E+07,
2461477.500000000, A.D. 2027-Mar-13 00:00:00.0000, 3.862400068759435E+08, -5.817489280543580E+06, -3.181080948244857E+07,
2461484.500000000, A.D. 2027-Mar-20 00:00:00.0000, 3.890160648019345E+08, 2.822213625522587E+06, -3.055935295983450E+07,
2461491.500000000, A.D. 2027-Mar-27 00:00:00.0000, 3.914743474502002E+08, 1.145962086481686E+07, -2.928292608527889E+07,
2461498.500000000, A.D. 2027-Apr-03 00:00:00.0000, 3.936189384248695E+08, 2.008785342406601E+07, -2.798302772305185E+07,
2461505.500000000, A.D. 2027-Apr-10 00:00:00.0000, 3.954538017762213E+08, 2.870028549139257E+07, -2.666110397235794E+07,
2461512.500000000, A.D. 2027-Apr-17 00:00:00.0000, 3.969827843835342E+08, 3.729052189539625E+07, -2.531855219419031E+07,
2461519.500000000, A.D. 2027-Apr-24 00:00:00.0000, 3.982096187211026E+08, 4.585237701568245E+07, -2.395672480727769E+07,
2461526.500000000, A.D. 2027-May-01 00:00:00.0000, 3.991379262457901E+08, 5.437985503241596E+07, -2.257693290061566E+07,
2461533.500000000, A.D. 2027-May-08 00:00:00.0000, 3.997712216611430E+08, 6.286713211788354E+07, -2.118044965005592E+07,
2461540.500000000, A.D. 2027-May-15 00:00:00.0000, 4.001129165189408E+08, 7.130854139399050E+07, -1.976851334240033E+07,
2461547.500000000, A.D. 2027-May-22 00:00:00.0000, 4.001663205651835E+08, 7.969855794499248E+07, -1.834233009290978E+07,
2461554.500000000, A.D. 2027-May-29 00:00:00.0000, 3.999346441596914E+08, 8.803178230435149E+07, -1.690307670044025E+07,
2461561.500000000, A.D. 2027-Jun-05 00:00:00.0000, 3.994210026266603E+08, 9.630292544731471E+07, -1.545190348036190E+07,
2461568.500000000, A.D. 2027-Jun-12 00:00:00.0000, 3.986284205089257E+08, 1.045067956340910E+08, -1.398993686980507E+07,
2461575.500000000, A.D. 2027-Jun-19 00:00:00.0000, 3.975598353846934E+08, 1.126382860903349E+08, -1.251828186452278E+07,
2461582.500000000, A.D. 2027-Jun-26 00:00:00.0000, 3.962181015229798E+08, 1.206923631905163E+08, -1.103802434677853E+07,
2461589.500000000, A.D. 2027-Jul-03 00:00:00.0000, 3.946059935105621E+08, 1.286640550827566E+08, -9.550233327251442E+06,
2461596.500000000, A.D. 2027-Jul-10 00:00:00.0000, 3.927262098892655E+08, 1.365484406976539E+08, -8.055963114378177E+06,
2461603.500000000, A.D. 2027-Jul-17 00:00:00.0000, 3.905813768426924E+08, 1.443406390404036E+08, -6.556255427737370E+06,
2461610.500000000, A.D. 2027-Jul-24 00:00:00.0000, 3.881740520931875E+08, 1.520357986460410E+08, -5.052141484579764E+06,
2461617.500000000, A.D. 2027-Jul-31 00:00:00.0000, 3.855067294265336E+08, 1.596290873790559E+08, -3.544644087341115E+06,
2461624.500000000, A.D. 2027-Aug-07 00:00:00.0000, 3.825818436491880E+08, 1.671156836776070E+08, -2.034779608712576E+06,
2461631.500000000, A.D. 2027-Aug-14 00:00:00.0000, 3.794017736845466E+08, 1.744907689438018E+08, -5.235596924739853E+05,
2461638.500000000, A.D. 2027-Aug-21 00:00:00.0000, 3.759688444425367E+08, 1.817495176737517E+08, 9.880069898364767E+05,
2461645.500000000, A.D. 2027-Aug-28 00:00:00.0000, 3.722853309103982E+08, 1.888870864857772E+08, 2.498912701248839E+06,
2461652.500000000, A.D. 2027-Sep-04 00:00:00.0000, 3.683534632981439E+08, 1.958986045062520E+08, 4.008148624817580E+06,
2461659.500000000, A.D. 2027-Sep-11 00:00:00.0000, 3.641754318615657E+08, 2.027791644120910E+08, 5.514702937581211E+06,
2461666.500000000, A.D. 2027-Sep-18 00:00:00.0000, 3.597533915578855E+08, 2.095238134409939E+08, 7.017558899029940E+06,
2461673.500000000, A.D. 2027-Sep-25 00:00:00.0000, 3.550894667875392E+08, 2.161275442535242E+08, 8.515692917973146E+06,
2461680.500000000, A.D. 2027-Oct-02 00:00:00.0000, 3.501857563245592E+08, 2.225852856365792E+08, 1.000807258426204E+07,
2461687.500000000, A.D. 2027-Oct-09 00:00:00.0000, 3.450443384885505E+08, 2.288918930057356E+08, 1.149365465385288E+07,
2461694.500000000, A.D. 2027-Oct-16 00:00:00.0000, 3.396672766554630E+08, 2.350421386133036E+08, 1.297138296762438E+07,
2461701.500000000, A.D. 2027-Oct-23 00:00:00.0000, 3.340566254051473E+08, 2.410307014173680E+08, 1.444018627001266E+07,
2461708.500000000, A.D. 2027-Oct-30 00:00:00.0000, 3.282144377223488E+08, 2.468521571808669E+08, 1.589897593269609E+07,
2461715.500000000, A.D. 2027-Nov-06 00:00:00.0000, 3.221427721302945E+08, 2.525009698849606E+08, 1.734664377109438E+07,
2461722.500000000, A.D. 2027-Nov-13 00:00:00.0000, 3.158436978173979E+08, 2.579714823403697E+08, 1.878205995487529E+07,
2461729.500000000, A.D. 2027-Nov-20 00:00:00.0000, 3.093193007176574E+08, 2.632579037729381E+08, 2.020407055613515E+07,
2461736.500000000, A.D. 2027-Nov-27 00:00:00.0000, 3.025716922274913E+08, 2.683542973045122E+08, 2.161149481623337E+07,
2461743.500000000, A.D. 2027-Dec-04 00:00:00.0000, 2.956030186054119E+08, 2.732545681987063E+08, 2.300312237798187E+07,
2461750.500000000, A.D. 2027-Dec-11 00:00:00.0000, 2.884154705845978E+08, 2.779524518633955E+08, 2.437771044085078E+07,
2461757.500000000, A.D. 2027-Dec-18 00:00:00.0000, 2.810112935652587E+08, 2.824415012245536E+08, 2.573398077129143E+07,
2461764.500000000, A.D. 2027-Dec-25 00:00:00.0000, 2.733927986418518E+08, 2.867150734205846E+08, 2.707061653792961E+07,
2461771.500000000, A.D. 2028-Jan-01 00:00:00.0000, 2.655623746219787E+08, 2.907663157812064E+08, 2.838625895161307E+07,
$$EOE